start=new Date('2022-01-15T00:00:00.000Z').valueOf();
sats=[{"FILE":"3273247","MEAN_ANOMALY":"251.5065","REV_AT_EPOCH":"4705","RA_OF_ASC_NODE":"222.9417","NORAD_CAT_ID":"47890","EPHEMERIS_TYPE":"0","ELEMENT_SET_NO":"999","ECCENTRICITY":"0.00023390","TIME_SYSTEM":"UTC","GP_ID":"193879415","TLE_LINE1":"1 47890U 21021AG  22014.85768214  .00011237  00000-0  25427-3 0  9991","PERIOD":"93.285","OBJECT_NAME":"STARLINK-2350","APOAPSIS":"436.906","OBJECT_TYPE":"PAYLOAD","TLE_LINE2":"2 47890  53.0538 222.9417 0002339 108.6195 251.5065 15.43662731 47056","PERIAPSIS":"433.719","SITE":"AFETR","RCS_SIZE":"LARGE","INCLINATION":"53.0538","MEAN_MOTION":"15.43662731","REF_FRAME":"TEME","COUNTRY_CODE":"US","BSTAR":"0.00025427000000","CLASSIFICATION_TYPE":"U","EPOCH":"2022-01-14T20:35:03.736896","SEMIMAJOR_AXIS":"6813.447","MEAN_MOTION_DDOT":"0.0000000000000","OBJECT_ID":"2021-021AG","CENTER_NAME":"EARTH","ARG_OF_PERICENTER":"108.6195","MEAN_MOTION_DOT":"0.00011237","DECAY_DATE":null,"MEAN_ELEMENT_THEORY":"SGP4","LAUNCH_DATE":"2021-03-14"},{"CLASSIFICATION_TYPE":"U","EPOCH":"2022-01-14T21:49:56.369280","MEAN_MOTION_DDOT":"0.0000000000000","SEMIMAJOR_AXIS":"6925.322","DECAY_DATE":null,"MEAN_ELEMENT_THEORY":"SGP4","LAUNCH_DATE":"2021-03-14","OBJECT_ID":"2021-021AH","CENTER_NAME":"EARTH","ARG_OF_PERICENTER":"70.7048","MEAN_MOTION_DOT":"0.00002730","SITE":"AFETR","RCS_SIZE":"LARGE","INCLINATION":"53.0558","TLE_LINE2":"2 47891  53.0558 241.7248 0002160  70.7048 289.4174 15.06408543 47901","PERIAPSIS":"545.692","COUNTRY_CODE":"US","BSTAR":"0.00020209000000","MEAN_MOTION":"15.06408543","REF_FRAME":"TEME","PERIOD":"95.592","TIME_SYSTEM":"UTC","GP_ID":"193878163","TLE_LINE1":"1 47891U 21021AH  22014.90968020  .00002730  00000-0  20209-3 0  9996","OBJECT_TYPE":"PAYLOAD","APOAPSIS":"548.683","OBJECT_NAME":"STARLINK-2351","EPHEMERIS_TYPE":"0","FILE":"3273247","REV_AT_EPOCH":"4790","MEAN_ANOMALY":"289.4174","RA_OF_ASC_NODE":"241.7248","NORAD_CAT_ID":"47891","ECCENTRICITY":"0.00021600","ELEMENT_SET_NO":"999"},{"TLE_LINE1":"1 47892U 21021AJ  22014.92811656  .00001461  00000-0  11703-3 0  9990","GP_ID":"193878413","TIME_SYSTEM":"UTC","PERIOD":"95.593","OBJECT_NAME":"STARLINK-2352","APOAPSIS":"548.882","OBJECT_TYPE":"PAYLOAD","NORAD_CAT_ID":"47892","RA_OF_ASC_NODE":"241.6523","REV_AT_EPOCH":"4774","FILE":"3273247","MEAN_ANOMALY":"282.3637","EPHEMERIS_TYPE":"0","ELEMENT_SET_NO":"999","ECCENTRICITY":"0.00023770","SEMIMAJOR_AXIS":"6925.370","MEAN_MOTION_DDOT":"0.0000000000000","CLASSIFICATION_TYPE":"U","EPOCH":"2022-01-14T22:16:29.270784","CENTER_NAME":"EARTH","ARG_OF_PERICENTER":"77.7618","MEAN_MOTION_DOT":"0.00001461","OBJECT_ID":"2021-021AJ","LAUNCH_DATE":"2021-03-14","DECAY_DATE":null,"MEAN_ELEMENT_THEORY":"SGP4","PERIAPSIS":"545.589","TLE_LINE2":"2 47892  53.0556 241.6523 0002377  77.7618 282.3637 15.06392867 47744","INCLINATION":"53.0556","RCS_SIZE":"LARGE","SITE":"AFETR","REF_FRAME":"TEME","MEAN_MOTION":"15.06392867","BSTAR":"0.00011703000000","COUNTRY_CODE":"US"},{"EPHEMERIS_TYPE":"0","RA_OF_ASC_NODE":"231.9304","NORAD_CAT_ID":"47894","FILE":"3273247","REV_AT_EPOCH":"4782","MEAN_ANOMALY":"289.0129","ECCENTRICITY":"0.00022470","ELEMENT_SET_NO":"999","PERIOD":"95.593","TLE_LINE1":"1 47894U 21021AL  22014.86639128  .00001019  00000-0  87361-4 0  9990","GP_ID":"193879664","TIME_SYSTEM":"UTC","APOAPSIS":"548.801","OBJECT_TYPE":"PAYLOAD","OBJECT_NAME":"STARLINK-2354","RCS_SIZE":"LARGE","INCLINATION":"53.0538","SITE":"AFETR","PERIAPSIS":"545.689","TLE_LINE2":"2 47894  53.0538 231.9304 0002247  71.1104 289.0129 15.06389670 47826","BSTAR":"0.00008736100000","COUNTRY_CODE":"US","REF_FRAME":"TEME","MEAN_MOTION":"15.06389670","MEAN_MOTION_DDOT":"0.0000000000000","SEMIMAJOR_AXIS":"6925.380","EPOCH":"2022-01-14T20:47:36.206592","CLASSIFICATION_TYPE":"U","LAUNCH_DATE":"2021-03-14","MEAN_ELEMENT_THEORY":"SGP4","DECAY_DATE":null,"MEAN_MOTION_DOT":"0.00001019","ARG_OF_PERICENTER":"71.1104","CENTER_NAME":"EARTH","OBJECT_ID":"2021-021AL"},{"OBJECT_NAME":"STARLINK-2355","APOAPSIS":"548.921","OBJECT_TYPE":"PAYLOAD","TIME_SYSTEM":"UTC","GP_ID":"193879915","TLE_LINE1":"1 47895U 21021AM  22014.87743127 -.00000673  00000-0 -26245-4 0  9998","PERIOD":"95.592","ELEMENT_SET_NO":"999","ECCENTRICITY":"0.00024430","MEAN_ANOMALY":"287.6823","FILE":"3273247","REV_AT_EPOCH":"4785","NORAD_CAT_ID":"47895","RA_OF_ASC_NODE":"231.8824","EPHEMERIS_TYPE":"0","OBJECT_ID":"2021-021AM","MEAN_MOTION_DOT":"-0.00000673","ARG_OF_PERICENTER":"72.4433","CENTER_NAME":"EARTH","MEAN_ELEMENT_THEORY":"SGP4","DECAY_DATE":null,"LAUNCH_DATE":"2021-03-14","EPOCH":"2022-01-14T21:03:30.061728","CLASSIFICATION_TYPE":"U","SEMIMAJOR_AXIS":"6925.364","MEAN_MOTION_DDOT":"0.0000000000000","MEAN_MOTION":"15.06394914","REF_FRAME":"TEME","COUNTRY_CODE":"US","BSTAR":"-0.00002624500000","TLE_LINE2":"2 47895  53.0555 231.8824 0002443  72.4433 287.6823 15.06394914 47854","PERIAPSIS":"545.537","SITE":"AFETR","INCLINATION":"53.0555","RCS_SIZE":"LARGE"},{"COUNTRY_CODE":"US","BSTAR":"0.00014470000000","REF_FRAME":"TEME","MEAN_MOTION":"15.06398647","INCLINATION":"53.0600","RCS_SIZE":"LARGE","SITE":"AFETR","PERIAPSIS":"545.722","TLE_LINE2":"2 47896  53.0600 246.6014 0002160  68.7960 291.3260 15.06398647 47629","LAUNCH_DATE":"2021-03-14","MEAN_ELEMENT_THEORY":"SGP4","DECAY_DATE":null,"ARG_OF_PERICENTER":"68.7960","MEAN_MOTION_DOT":"0.00001874","CENTER_NAME":"EARTH","OBJECT_ID":"2021-021AN","MEAN_MOTION_DDOT":"0.0000000000000","SEMIMAJOR_AXIS":"6925.353","EPOCH":"2022-01-14T22:29:05.736480","CLASSIFICATION_TYPE":"U","ECCENTRICITY":"0.00021600","ELEMENT_SET_NO":"999","EPHEMERIS_TYPE":"0","RA_OF_ASC_NODE":"246.6014","NORAD_CAT_ID":"47896","MEAN_ANOMALY":"291.3260","FILE":"3273247","REV_AT_EPOCH":"4762","APOAPSIS":"548.714","OBJECT_TYPE":"PAYLOAD","OBJECT_NAME":"STARLINK-2356","PERIOD":"95.592","GP_ID":"193878663","TLE_LINE1":"1 47896U 21021AN  22014.93687195  .00001874  00000-0  14470-3 0  9996","TIME_SYSTEM":"UTC"},{"TLE_LINE2":"2 47897  53.0513 232.1893 0002460  68.7371 291.3881 15.06390316 47878","PERIAPSIS":"545.540","SITE":"AFETR","INCLINATION":"53.0513","RCS_SIZE":"LARGE","MEAN_MOTION":"15.06390316","REF_FRAME":"TEME","BSTAR":"0.00007253200000","COUNTRY_CODE":"US","CLASSIFICATION_TYPE":"U","EPOCH":"2022-01-14T19:26:37.295232","SEMIMAJOR_AXIS":"6925.378","MEAN_MOTION_DDOT":"0.0000000000000","OBJECT_ID":"2021-021AP","CENTER_NAME":"EARTH","MEAN_MOTION_DOT":"0.00000798","ARG_OF_PERICENTER":"68.7371","DECAY_DATE":null,"MEAN_ELEMENT_THEORY":"SGP4","LAUNCH_DATE":"2021-03-14","MEAN_ANOMALY":"291.3881","FILE":"3273247","REV_AT_EPOCH":"4787","NORAD_CAT_ID":"47897","RA_OF_ASC_NODE":"232.1893","EPHEMERIS_TYPE":"0","ELEMENT_SET_NO":"999","ECCENTRICITY":"0.00024600","TIME_SYSTEM":"UTC","TLE_LINE1":"1 47897U 21021AP  22014.81015388  .00000798  00000-0  72532-4 0  9991","GP_ID":"193878913","PERIOD":"95.593","OBJECT_NAME":"STARLINK-2357","APOAPSIS":"548.947","OBJECT_TYPE":"PAYLOAD"},{"ECCENTRICITY":"0.00024510","ELEMENT_SET_NO":"999","EPHEMERIS_TYPE":"0","FILE":"3273247","MEAN_ANOMALY":"288.5425","REV_AT_EPOCH":"4782","RA_OF_ASC_NODE":"231.9174","NORAD_CAT_ID":"47898","OBJECT_TYPE":"PAYLOAD","APOAPSIS":"548.883","OBJECT_NAME":"STARLINK-2358","PERIOD":"95.592","TIME_SYSTEM":"UTC","TLE_LINE1":"1 47898U 21021AQ  22014.87005387  .00003430  00000-0  24903-3 0  9990","GP_ID":"193879165","BSTAR":"0.00024903000000","COUNTRY_CODE":"US","MEAN_MOTION":"15.06409091","REF_FRAME":"TEME","SITE":"AFETR","RCS_SIZE":"LARGE","INCLINATION":"53.0535","TLE_LINE2":"2 47898  53.0535 231.9174 0002451  71.5830 288.5425 15.06409091 47822","PERIAPSIS":"545.488","MEAN_ELEMENT_THEORY":"SGP4","DECAY_DATE":null,"LAUNCH_DATE":"2021-03-14","OBJECT_ID":"2021-021AQ","ARG_OF_PERICENTER":"71.5830","MEAN_MOTION_DOT":"0.00003430","CENTER_NAME":"EARTH","EPOCH":"2022-01-14T20:52:52.654368","CLASSIFICATION_TYPE":"U","SEMIMAJOR_AXIS":"6925.321","MEAN_MOTION_DDOT":"0.0000000000000"},{"MEAN_MOTION":"15.06394401","REF_FRAME":"TEME","BSTAR":"0.00008596000000","COUNTRY_CODE":"US","TLE_LINE2":"2 47899  53.0557 221.9288 0002421  70.1995 289.9255 15.06394401 48023","PERIAPSIS":"545.554","SITE":"AFETR","RCS_SIZE":"LARGE","INCLINATION":"53.0557","OBJECT_ID":"2021-021AR","CENTER_NAME":"EARTH","ARG_OF_PERICENTER":"70.1995","MEAN_MOTION_DOT":"0.00000999","DECAY_DATE":null,"MEAN_ELEMENT_THEORY":"SGP4","LAUNCH_DATE":"2021-03-14","CLASSIFICATION_TYPE":"U","EPOCH":"2022-01-14T20:48:54.751104","MEAN_MOTION_DDOT":"0.0000000000000","SEMIMAJOR_AXIS":"6925.366","ELEMENT_SET_NO":"999","ECCENTRICITY":"0.00024210","FILE":"3273247","REV_AT_EPOCH":"4802","MEAN_ANOMALY":"289.9255","NORAD_CAT_ID":"47899","RA_OF_ASC_NODE":"221.9288","EPHEMERIS_TYPE":"0","OBJECT_NAME":"STARLINK-2359","APOAPSIS":"548.907","OBJECT_TYPE":"PAYLOAD","TIME_SYSTEM":"UTC","GP_ID":"193879416","TLE_LINE1":"1 47899U 21021AR  22014.86730036  .00000999  00000-0  85960-4 0  9994","PERIOD":"95.592"},{"ECCENTRICITY":"0.00025430","ELEMENT_SET_NO":"999","EPHEMERIS_TYPE":"0","NORAD_CAT_ID":"47900","RA_OF_ASC_NODE":"231.8205","MEAN_ANOMALY":"293.9367","FILE":"3273247","REV_AT_EPOCH":"4788","OBJECT_TYPE":"PAYLOAD","APOAPSIS":"549.007","OBJECT_NAME":"STARLINK-2360","PERIOD":"95.593","TLE_LINE1":"1 47900U 21021AS  22014.89124021  .00000921  00000-0  80771-4 0  9991","GP_ID":"193878164","TIME_SYSTEM":"UTC","BSTAR":"0.00008077100000","COUNTRY_CODE":"US","REF_FRAME":"TEME","MEAN_MOTION":"15.06389456","INCLINATION":"53.0541","RCS_SIZE":"LARGE","SITE":"AFETR","PERIAPSIS":"545.485","TLE_LINE2":"2 47900  53.0541 231.8205 0002543  66.1889 293.9367 15.06389456 47886","LAUNCH_DATE":"2021-03-14","DECAY_DATE":null,"MEAN_ELEMENT_THEORY":"SGP4","CENTER_NAME":"EARTH","ARG_OF_PERICENTER":"66.1889","MEAN_MOTION_DOT":"0.00000921","OBJECT_ID":"2021-021AS","SEMIMAJOR_AXIS":"6925.381","MEAN_MOTION_DDOT":"0.0000000000000","CLASSIFICATION_TYPE":"U","EPOCH":"2022-01-14T21:23:23.154144"}];
